#aV2011  4 19  0  0   .00000000      96 DD+AD WGS84 FIT  NGA
## 1632 172800.00000000   900.00000000 55670  .0000000000000
+   32     1  2  3  4  5  6  7  8  9 10 11 12 13 14 15 16 17
+         18 19 20 21 22 23 24 25 26 27 28 29 30 31 32  0  0
+          0  0  0  0  0  0  0  0  0  0  0  0  0  0  0  0  0
+          0  0  0  0  0  0  0  0  0  0  0  0  0  0  0  0  0
+          0  0  0  0  0  0  0  0  0  0  0  0  0  0  0  0  0
++         0  0  0  0  0  0  0  0  0  0  0  0  0  0  0  0  0
++         0  0  0  0  0  0  0  0  0  0  0  0  0  0  0  0  0
++         0  0  0  0  0  0  0  0  0  0  0  0  0  0  0  0  0
++         0  0  0  0  0  0  0  0  0  0  0  0  0  0  0  0  0
++         0  0  0  0  0  0  0  0  0  0  0  0  0  0  0  0  0
%c cc cc ccc ccc cccc cccc cccc cccc ccccc ccccc ccccc ccccc
%c cc cc ccc ccc cccc cccc cccc cccc ccccc ccccc ccccc ccccc
%f  0.0000000  0.000000000  0.00000000000  0.000000000000000
%f  0.0000000  0.000000000  0.00000000000  0.000000000000000
%i    0    0    0    0      0      0      0      0         0
%i    0    0    0    0      0      0      0      0         0
/*      NGA, ST. LOUIS,MO.                                  
/*   EPHEMERIS COMPUTED FROM  3 DAYS OF DATA                
/* CCCCCCCCCCCCCCCCCCCCCCCCCCCCCCCCCCCCCCCCCCCCCCCCCCCCCCCCC
/* CCCCCCCCCCCCCCCCCCCCCCCCCCCCCCCCCCCCCCCCCCCCCCCCCCCCCCCCC
*  2011  4 19  3 45   .00000000                                                 
P  1  17932.794186   8621.475243 -17778.083402   -223.516821                    
V  1 -21473.369248   6077.752935 -18690.754746      -.025160                    
P  2 -15387.634401  -3087.340351 -21365.948581    331.647849                    
V  2   7531.093014 -26277.958455  -2108.827030       .021578                    
P  3  22449.826255   7384.988986  12015.150938    703.895804                    
V  3  10060.764157  12631.363120 -25362.083317       .050388                    
P  4  -9667.753733 -15743.148108 -19165.882216     92.227631                    
V  4   9055.553850 -22394.126932  14325.782903       .104582                    
P  5 -25736.462871    711.365840  -6764.503885   -146.846427                    
V  5   7759.976523  -4530.703840 -29980.358938      -.058022                    
P  6  21982.795721  11562.903336   9869.037341    663.908012                    
V  6   6595.808787  10784.567053 -27561.636439     -1.070349                    
P  7   5063.656975 -25522.884957   4744.821747      8.545474                    
V  7   4274.506492  -4954.851990 -31433.071627       .010322                    
P  8  -1129.235747 -21889.520734  14609.563611      7.752102                    
V  8   8678.772431 -16613.461313 -24787.562525       .001668                    
P  9 -14173.840242  18261.388673  12520.750568     74.677519                    
V  9   3003.274597 -16594.032533  26459.578116       .022829                    
P 10 -16416.907537 -10324.709075 -18519.396590    -71.945627                    
V 10  22298.946056  -5736.235797 -16394.896295      -.009558                    
P 11  13212.720636 -17037.854607  14971.139166   -143.829167                    
V 11   2565.214218  20153.804229  20596.698067      -.031056                    
P 12 -21579.042039  11389.967230 -10248.638875    -10.708232                    
V 12 -13277.464036    358.759775  28448.667416       .027727                    
P 13   -226.911970 -19659.048057 -17976.351022    274.549827                    
V 13  14588.240253  17151.265288 -19147.052545      -.015107                    
P 14  14594.456160  21995.594812   3706.222278    144.781575                    
V 14  -4342.838355  -2255.700646  31690.029484       .024155                    
P 15 -15137.317258   5872.437477  21049.781037   -134.211373                    
V 15 -17831.139210 -19920.607877  -7104.504488       .028284                    
P 16  25386.424162   1068.816141  -8227.554738   -166.156699                    
V 16  -9873.732049   3759.260583 -29577.083489      -.027247                    
P 17 -14752.511904 -21849.866371   4246.570055    184.371341                    
V 17   5322.173496   2279.334889  31001.272959      -.000761                    
P 18   -112.126942  16143.778584  21366.224309    132.602192                    
V 18 -26170.906824   4573.524751  -4020.622595       .019799                    
P 19  17243.619668   -898.275709  20272.634814   -131.902913                    
V 19  14876.266212  20922.547873 -11384.397058      -.038835                    
P 20  18137.531804 -14520.986089 -12959.812170     48.968409                    
V 20  16527.602694  -1196.319253  24815.557799       .001176                    
P 21  -3170.916883  25273.895497   6689.796472   -138.467116                    
V 21  -6355.874667   6489.023756 -29911.124405      -.026392                    
P 22  12083.683812  12848.282673  20053.995600    149.975682                    
V 22 -24483.774230   6005.491931  10892.618837      -.007708                    
P 23  10519.934392 -10919.595295 -21795.219086    312.341528                    
V 23  18550.652523  20540.786379  -1674.022270      -.026218                    
P 24  15054.042109 -19307.205904   9999.187220    382.832373                    
V 24  -1706.252745  12974.057052  28054.698702       .031286                    
P 25  -9405.161514  15822.167226 -19155.301042     -1.140179                    
V 25 -23967.821076   4161.062924  15237.510538       .001358                    
P 26 -19513.591738  -8259.139253  15676.703721     -6.567616                    
V 26 -11718.696314 -17221.578313 -22407.927043      -.105809                    
P 27 -15806.659626  12193.189042  18016.160227    256.867283                    
V 27   4435.271384 -21227.420321  19266.107509       .036110                    
P 28  -7984.168527 -13694.830602  21866.465298     32.319117                    
V 28  26023.869480  -4824.322179   6387.809424       .024063                    
P 29  -2708.902553  17853.543932 -19405.916885    200.936835                    
V 29 -16919.278202 -18189.267368 -14269.261515       .030152                    
P 30  20991.748684   5824.502596 -15623.455643    337.998491                    
V 30 -18010.099857   6619.667786 -22289.172482       .028090                    
P 31   9947.021452  13434.634315 -20382.050709     68.497335                    
V 31  -9219.933264  24698.073412  11869.268163       .052079                    
P 32  24312.720883  -7633.162650  -6402.238638   -237.821551                    
V 32   8938.908386   2142.535674  30466.124874      -.073568                    
EOF
